{
  "type": "FeatureCollection",
  "features": [
    {
      "type": "Feature",
      "properties": {
        "norad_id": 41877,
        "name": "RESOURCESAT-2A",
        "group": "resource",
        "lat": 79.5051225803027,
        "lon": -71.7489939174232,
        "alt_km": 813.3717163938845,
        "timestamp": "2025-12-07T20:38:13.734949+00:00",
        "meta_object_name": "RESOURCESAT-2A",
        "meta_object_id": "2016-074A",
        "meta_epoch": "2025-12-07T06:40:29.180064",
        "meta_mean_motion": 14.21596065,
        "meta_eccentricity": 0.00011246,
        "meta_inclination": 98.7765,
        "meta_ra_of_asc_node": 51.1658,
        "meta_arg_of_pericenter": 280.5589,
        "meta_mean_anomaly": 79.5461,
        "meta_ephemeris_type": 0,
        "meta_classification_type": "U",
        "meta_norad_cat_id": 41877,
        "meta_element_set_no": 999,
        "meta_rev_at_epoch": 46703,
        "meta_bstar": 0.00017750887,
        "meta_mean_motion_dot": 3.45e-06,
        "meta_mean_motion_ddot": 0,
        "tle_line1": "1 41877U 16074A   25341.27811551  .00000345  00000+0  17751-3 0  9995",
        "tle_line2": "2 41877  98.7765  51.1658 0001124 280.5589  79.5461 14.21596065467033"
      },
      "geometry": {
        "type": "Point",
        "coordinates": [
          -71.7489939174232,
          79.5051225803027
        ]
      }
    },
    {
      "type": "Feature",
      "properties": {
        "norad_id": 41948,
        "name": "CARTOSAT-2D",
        "group": "resource",
        "lat": -10.127140287779882,
        "lon": -141.905762001819,
        "alt_km": 509.78344390407074,
        "timestamp": "2025-12-07T20:38:13.734959+00:00",
        "meta_object_name": "CARTOSAT-2D",
        "meta_object_id": "2017-008A",
        "meta_epoch": "2025-12-07T05:34:32.745216",
        "meta_mean_motion": 15.19176107,
        "meta_eccentricity": 0.00041858,
        "meta_inclination": 97.4394,
        "meta_ra_of_asc_node": 38.8136,
        "meta_arg_of_pericenter": 180.1803,
        "meta_mean_anomaly": 179.9431,
        "meta_ephemeris_type": 0,
        "meta_classification_type": "U",
        "meta_norad_cat_id": 41948,
        "meta_element_set_no": 999,
        "meta_rev_at_epoch": 48843,
        "meta_bstar": 0.00039211583,
        "meta_mean_motion_dot": 8.184e-05,
        "meta_mean_motion_ddot": 0,
        "tle_line1": "1 41948U 17008A   25341.23232344  .00008184  00000+0  39212-3 0  9990",
        "tle_line2": "2 41948  97.4394  38.8136 0004185 180.1803 179.9431 15.19176107488431"
      },
      "geometry": {
        "type": "Point",
        "coordinates": [
          -141.905762001819,
          -10.127140287779882
        ]
      }
    },
    {
      "type": "Feature",
      "properties": {
        "norad_id": 42063,
        "name": "SENTINEL-2B",
        "group": "resource",
        "lat": -78.77813689714593,
        "lon": -175.1142342191108,
        "alt_km": 797.1225851495374,
        "timestamp": "2025-12-07T20:38:13.734969+00:00",
        "meta_object_name": "SENTINEL-2B",
        "meta_object_id": "2017-013A",
        "meta_epoch": "2025-12-07T05:59:10.846176",
        "meta_mean_motion": 14.30812808,
        "meta_eccentricity": 0.00011256,
        "meta_inclination": 98.5724,
        "meta_ra_of_asc_node": 53.7724,
        "meta_arg_of_pericenter": 97.7742,
        "meta_mean_anomaly": 262.3568,
        "meta_ephemeris_type": 0,
        "meta_classification_type": "U",
        "meta_norad_cat_id": 42063,
        "meta_element_set_no": 999,
        "meta_rev_at_epoch": 45719,
        "meta_bstar": 0.00014010649,
        "meta_mean_motion_dot": 3.24e-06,
        "meta_mean_motion_ddot": 0,
        "tle_line1": "1 42063U 17013A   25341.24943109  .00000324  00000+0  14011-3 0  9992",
        "tle_line2": "2 42063  98.5724  53.7724 0001125  97.7742 262.3568 14.30812808457198"
      },
      "geometry": {
        "type": "Point",
        "coordinates": [
          -175.1142342191108,
          -78.77813689714593
        ]
      }
    },
    {
      "type": "Feature",
      "properties": {
        "norad_id": 42767,
        "name": "CARTOSAT-2E",
        "group": "resource",
        "lat": 77.23798615238331,
        "lon": -105.16518625637195,
        "alt_km": 502.4197051713609,
        "timestamp": "2025-12-07T20:38:13.734980+00:00",
        "meta_object_name": "CARTOSAT-2E",
        "meta_object_id": "2017-036C",
        "meta_epoch": "2025-12-07T05:58:12.654048",
        "meta_mean_motion": 15.192393,
        "meta_eccentricity": 0.00023716,
        "meta_inclination": 97.456,
        "meta_ra_of_asc_node": 38.907,
        "meta_arg_of_pericenter": 265.0388,
        "meta_mean_anomaly": 95.0576,
        "meta_ephemeris_type": 0,
        "meta_classification_type": "U",
        "meta_norad_cat_id": 42767,
        "meta_element_set_no": 999,
        "meta_rev_at_epoch": 46900,
        "meta_bstar": 0.00041239266,
        "meta_mean_motion_dot": 8.625e-05,
        "meta_mean_motion_ddot": 0,
        "tle_line1": "1 42767U 17036C   25341.24875757  .00008625  00000+0  41239-3 0  9995",
        "tle_line2": "2 42767  97.4560  38.9070 0002371 265.0388  95.0576 15.19239300469005"
      },
      "geometry": {
        "type": "Point",
        "coordinates": [
          -105.16518625637195,
          77.23798615238331
        ]
      }
    },
    {
      "type": "Feature",
      "properties": {
        "norad_id": 42920,
        "name": "FORMOSAT-5",
        "group": "resource",
        "lat": -81.72134860410019,
        "lon": 141.5699504238101,
        "alt_km": 724.3454931083716,
        "timestamp": "2025-12-07T20:38:13.734993+00:00",
        "meta_object_name": "FORMOSAT-5",
        "meta_object_id": "2017-049A",
        "meta_epoch": "2025-12-07T06:09:09.230976",
        "meta_mean_motion": 14.51000429,
        "meta_eccentricity": 0.00101122,
        "meta_inclination": 98.2458,
        "meta_ra_of_asc_node": 55.684,
        "meta_arg_of_pericenter": 314.0369,
        "meta_mean_anomaly": 45.9993,
        "meta_ephemeris_type": 0,
        "meta_classification_type": "U",
        "meta_norad_cat_id": 42920,
        "meta_element_set_no": 999,
        "meta_rev_at_epoch": 43884,
        "meta_bstar": 0.00014147899,
        "meta_mean_motion_dot": 5.16e-06,
        "meta_mean_motion_ddot": 0,
        "tle_line1": "1 42920U 17049A   25341.25635684  .00000516  00000+0  14148-3 0  9994",
        "tle_line2": "2 42920  98.2458  55.6840 0010112 314.0369  45.9993 14.51000429438846"
      },
      "geometry": {
        "type": "Point",
        "coordinates": [
          141.5699504238101,
          -81.72134860410019
        ]
      }
    },
    {
      "type": "Feature",
      "properties": {
        "norad_id": 42969,
        "name": "SENTINEL-5P",
        "group": "resource",
        "lat": 40.87229081705104,
        "lon": 108.17129187378487,
        "alt_km": 823.2934188856616,
        "timestamp": "2025-12-07T20:38:13.735004+00:00",
        "meta_object_name": "SENTINEL-5P",
        "meta_object_id": "2017-064A",
        "meta_epoch": "2025-12-07T03:04:13.797408",
        "meta_mean_motion": 14.19515254,
        "meta_eccentricity": 9.629e-05,
        "meta_inclination": 98.7777,
        "meta_ra_of_asc_node": 279.7621,
        "meta_arg_of_pericenter": 86.5939,
        "meta_mean_anomaly": 273.5347,
        "meta_ephemeris_type": 0,
        "meta_classification_type": "U",
        "meta_norad_cat_id": 42969,
        "meta_element_set_no": 999,
        "meta_rev_at_epoch": 42231,
        "meta_bstar": 0.00010307983,
        "meta_mean_motion_dot": 1.73e-06,
        "meta_mean_motion_ddot": 0,
        "tle_line1": "1 42969U 17064A   25341.12793747  .00000173  00000+0  10308-3 0  9998",
        "tle_line2": "2 42969  98.7777 279.7621 0000962  86.5939 273.5347 14.19515254422318"
      },
      "geometry": {
        "type": "Point",
        "coordinates": [
          108.17129187378487,
          40.87229081705104
        ]
      }
    },
    {
      "type": "Feature",
      "properties": {
        "norad_id": 42987,
        "name": "SKYSAT-C11",
        "group": "resource",
        "lat": 8.625443718285045,
        "lon": -59.6358178312662,
        "alt_km": 426.7448533756269,
        "timestamp": "2025-12-07T20:38:13.735014+00:00",
        "meta_object_name": "SKYSAT-C11",
        "meta_object_id": "2017-068A",
        "meta_epoch": "2025-12-07T02:49:28.511904",
        "meta_mean_motion": 15.47101007,
        "meta_eccentricity": 9.35e-05,
        "meta_inclination": 97.4145,
        "meta_ra_of_asc_node": 118.4722,
        "meta_arg_of_pericenter": 107.9063,
        "meta_mean_anomaly": 252.2289,
        "meta_ephemeris_type": 0,
        "meta_classification_type": "U",
        "meta_norad_cat_id": 42987,
        "meta_element_set_no": 999,
        "meta_rev_at_epoch": 45344,
        "meta_bstar": 0.00062933088,
        "meta_mean_motion_dot": 0.00031875,
        "meta_mean_motion_ddot": 0,
        "tle_line1": "1 42987U 17068A   25341.11769111  .00031875  00000+0  62933-3 0  9993",
        "tle_line2": "2 42987  97.4145 118.4722 0000935 107.9063 252.2289 15.47101007453446"
      },
      "geometry": {
        "type": "Point",
        "coordinates": [
          -59.6358178312662,
          8.625443718285045
        ]
      }
    }
  ]
}